[{"OBJECT_NAME":"STARLINK-4624","OBJECT_ID":"2022-105AN","EPOCH":"2026-03-09T16:22:04.883808","MEAN_MOTION":15.01270773,"ECCENTRICITY":0.00031749,"INCLINATION":97.604,"RA_OF_ASC_NODE":310.272,"ARG_OF_PERICENTER":79.9673,"MEAN_ANOMALY":280.1909,"EPHEMERIS_TYPE":0,"CLASSIFICATION_TYPE":"U","NORAD_CAT_ID":53684,"ELEMENT_SET_NO":999,"REV_AT_EPOCH":19321,"BSTAR":0.00016885396,"MEAN_MOTION_DOT":2.112e-5,"MEAN_MOTION_DDOT":0},{"OBJECT_NAME":"USA 40 R\/B DEB","OBJECT_ID":"1989-061AJ","EPOCH":"2026-03-09T19:42:34.478496","MEAN_MOTION":9.53596493,"ECCENTRICITY":0.26165121,"INCLINATION":56.8634,"RA_OF_ASC_NODE":268.8088,"ARG_OF_PERICENTER":49.6323,"MEAN_ANOMALY":330.5234,"EPHEMERIS_TYPE":0,"CLASSIFICATION_TYPE":"U","NORAD_CAT_ID":23362,"ELEMENT_SET_NO":999,"REV_AT_EPOCH":23864,"BSTAR":0.0073140853,"MEAN_MOTION_DOT":7.987e-5,"MEAN_MOTION_DDOT":0}]
